[{"OBJECT_NAME":"A-SEANSAT-PG1","OBJECT_ID":"2023-091AH","EPOCH":"2026-03-09T22:32:06.495648","MEAN_MOTION":15.33422293,"ECCENTRICITY":0.00088895,"INCLINATION":97.5184,"RA_OF_ASC_NODE":136.6191,"ARG_OF_PERICENTER":78.3219,"MEAN_ANOMALY":281.902,"EPHEMERIS_TYPE":0,"CLASSIFICATION_TYPE":"U","NORAD_CAT_ID":57197,"ELEMENT_SET_NO":999,"REV_AT_EPOCH":14948,"BSTAR":0.0007038551,"MEAN_MOTION_DOT":0.00022724,"MEAN_MOTION_DDOT":0},{"OBJECT_NAME":"STARLINK-35468","OBJECT_ID":"2025-237E","EPOCH":"2026-03-09T04:59:50.630496","MEAN_MOTION":15.30193843,"ECCENTRICITY":0.00011921,"INCLINATION":53.1601,"RA_OF_ASC_NODE":42.0915,"ARG_OF_PERICENTER":74.2458,"MEAN_ANOMALY":285.8674,"EPHEMERIS_TYPE":0,"CLASSIFICATION_TYPE":"U","NORAD_CAT_ID":66118,"ELEMENT_SET_NO":999,"REV_AT_EPOCH":2253,"BSTAR":0.0014561469,"MEAN_MOTION_DOT":0.00043009,"MEAN_MOTION_DDOT":0}]
